SL-16 R/B               
1 22566U 93016B   25344.23141642 -.00000143  00000+0 -49119-4 0  9998
2 22566  71.0085  43.0722 0007843 102.3720 257.8281 14.15287162689518
COSMOS 2242             
1 22626U 93024A   25344.29487506  .00003274  00000+0  28854-3 0  9990
2 22626  82.5189 352.1814 0014855 243.2271 116.7431 14.96089624767025
SL-16 R/B               
1 22803U 93059B   25344.05000916  .00000008  00000+0  27834-4 0  9995
2 22803  70.9896 200.1583 0017852 339.4197  20.6206 14.17213557666835
ARIANE 40 R/B           
1 22830U 93061H   25344.17409218  .00000426  00000+0  17193-3 0  9999
2 22830  98.5079  49.7507 0010725 183.5492 176.5617 14.32798760681289
COSMOS 2278             
1 23087U 94023A   25344.27269663 -.00000141  00000+0 -48948-4 0  9991
2 23087  71.0545   2.1727 0008450 183.7046 176.4015 14.14350941632163
SL-16 R/B               
1 23088U 94023B   25344.21858635  .00000156  00000+0  10497-3 0  9990
2 23088  71.0010 258.7799 0001232  36.6733 323.4474 14.15002393633439
SL-16 R/B               
1 23343U 94074B   25344.10528896  .00000763  00000+0  10926-3 0  9992
2 23343  97.7203  13.5144 0007364 143.3593 282.0962 14.79284768674003
SL-16 R/B               
1 23405U 94077B   25344.30574902  .00000282  00000+0  16872-3 0  9997
2 23405  70.9811 180.5343 0004611 285.9502  74.1112 14.15548154603585
ARIANE 40+ R/B          
1 23561U 95021B   25344.15902069  .00000502  00000+0  17442-3 0  9991
2 23561  98.4653  51.7789 0007583  56.8146 332.7962 14.39692341606369
SL-16 R/B               
1 23705U 95058B   25344.30831669  .00000170  00000+0  11131-3 0  9995
2 23705  71.0225   7.9093 0014957 258.3533 101.5911 14.15483291555202
SL-16 R/B               
1 24298U 96051B   25344.22231071  .00000029  00000+0  42157-4 0  9995
2 24298  70.7595   4.6129 0019353 264.4099  95.4814 14.12396271509019
ORBVIEW 2 (SEASTAR)     
1 24883U 97037A   25344.05736314  .00000520  00000+0  19717-3 0  9992
2 24883  98.8456 141.0644 0001779 350.8367   9.2785 14.35413923495614
