CCSDS_OMM_VERS = 2.0
CREATION_DATE  = 
ORIGINATOR     = 

OBJECT_NAME    = SL-16 R/B
OBJECT_ID      = 1993-016B
CENTER_NAME    = EARTH
REF_FRAME      = TEME
TIME_SYSTEM    = UTC
MEAN_ELEMENT_THEORY = SGP/SGP4

EPOCH          = 2025-12-10T05:33:14.378688
MEAN_MOTION    = 14.15287162
ECCENTRICITY   = .00078433
INCLINATION    = 71.0085
RA_OF_ASC_NODE = 43.0722
ARG_OF_PERICENTER = 102.3720
MEAN_ANOMALY   = 257.8281

EPHEMERIS_TYPE = 0
CLASSIFICATION_TYPE = U
NORAD_CAT_ID   = 22566
ELEMENT_SET_NO = 999
REV_AT_EPOCH   = 68951
BSTAR          = -.49118655E-4
MEAN_MOTION_DOT = -.143E-5
MEAN_MOTION_DDOT = 0

CCSDS_OMM_VERS = 2.0
CREATION_DATE  = 
ORIGINATOR     = 

OBJECT_NAME    = COSMOS 2242
OBJECT_ID      = 1993-024A
CENTER_NAME    = EARTH
REF_FRAME      = TEME
TIME_SYSTEM    = UTC
MEAN_ELEMENT_THEORY = SGP/SGP4

EPOCH          = 2025-12-10T07:04:37.205184
MEAN_MOTION    = 14.96089624
ECCENTRICITY   = .00148557
INCLINATION    = 82.5189
RA_OF_ASC_NODE = 352.1814
ARG_OF_PERICENTER = 243.2271
MEAN_ANOMALY   = 116.7431

EPHEMERIS_TYPE = 0
CLASSIFICATION_TYPE = U
NORAD_CAT_ID   = 22626
ELEMENT_SET_NO = 999
REV_AT_EPOCH   = 76702
BSTAR          = .28853974E-3
MEAN_MOTION_DOT = .3274E-4
MEAN_MOTION_DDOT = 0

CCSDS_OMM_VERS = 2.0
CREATION_DATE  = 
ORIGINATOR     = 

OBJECT_NAME    = SL-16 R/B
OBJECT_ID      = 1993-059B
CENTER_NAME    = EARTH
REF_FRAME      = TEME
TIME_SYSTEM    = UTC
MEAN_ELEMENT_THEORY = SGP/SGP4

EPOCH          = 2025-12-10T01:12:00.791424
MEAN_MOTION    = 14.17213557
ECCENTRICITY   = .00178523
INCLINATION    = 70.9896
RA_OF_ASC_NODE = 200.1583
ARG_OF_PERICENTER = 339.4197
MEAN_ANOMALY   = 20.6206

EPHEMERIS_TYPE = 0
CLASSIFICATION_TYPE = U
NORAD_CAT_ID   = 22803
ELEMENT_SET_NO = 999
REV_AT_EPOCH   = 66683
BSTAR          = .27834443E-4
MEAN_MOTION_DOT = .8E-7
MEAN_MOTION_DDOT = 0

CCSDS_OMM_VERS = 2.0
CREATION_DATE  = 
ORIGINATOR     = 

OBJECT_NAME    = ARIANE 40 R/B
OBJECT_ID      = 1993-061H
CENTER_NAME    = EARTH
REF_FRAME      = TEME
TIME_SYSTEM    = UTC
MEAN_ELEMENT_THEORY = SGP/SGP4

EPOCH          = 2025-12-10T04:10:41.564352
MEAN_MOTION    = 14.32798760
ECCENTRICITY   = .00107253
INCLINATION    = 98.5079
RA_OF_ASC_NODE = 49.7507
ARG_OF_PERICENTER = 183.5492
MEAN_ANOMALY   = 176.5617

EPHEMERIS_TYPE = 0
CLASSIFICATION_TYPE = U
NORAD_CAT_ID   = 22830
ELEMENT_SET_NO = 999
REV_AT_EPOCH   = 68128
BSTAR          = .17192585E-3
MEAN_MOTION_DOT = .426E-5
MEAN_MOTION_DDOT = 0

CCSDS_OMM_VERS = 2.0
CREATION_DATE  = 
ORIGINATOR     = 

OBJECT_NAME    = COSMOS 2278
OBJECT_ID      = 1994-023A
CENTER_NAME    = EARTH
REF_FRAME      = TEME
TIME_SYSTEM    = UTC
MEAN_ELEMENT_THEORY = SGP/SGP4

EPOCH          = 2025-12-10T06:32:40.988832
MEAN_MOTION    = 14.14350941
ECCENTRICITY   = .000845
INCLINATION    = 71.0545
RA_OF_ASC_NODE = 2.1727
ARG_OF_PERICENTER = 183.7046
MEAN_ANOMALY   = 176.4015

EPHEMERIS_TYPE = 0
CLASSIFICATION_TYPE = U
NORAD_CAT_ID   = 23087
ELEMENT_SET_NO = 999
REV_AT_EPOCH   = 63216
BSTAR          = -.48948094E-4
MEAN_MOTION_DOT = -.141E-5
MEAN_MOTION_DDOT = 0

CCSDS_OMM_VERS = 2.0
CREATION_DATE  = 
ORIGINATOR     = 

OBJECT_NAME    = SL-16 R/B
OBJECT_ID      = 1994-023B
CENTER_NAME    = EARTH
REF_FRAME      = TEME
TIME_SYSTEM    = UTC
MEAN_ELEMENT_THEORY = SGP/SGP4

EPOCH          = 2025-12-10T05:14:45.860640
MEAN_MOTION    = 14.15002393
ECCENTRICITY   = .00012322
INCLINATION    = 71.0010
RA_OF_ASC_NODE = 258.7799
ARG_OF_PERICENTER = 36.6733
MEAN_ANOMALY   = 323.4474

EPHEMERIS_TYPE = 0
CLASSIFICATION_TYPE = U
NORAD_CAT_ID   = 23088
ELEMENT_SET_NO = 999
REV_AT_EPOCH   = 63343
BSTAR          = .10497162E-3
MEAN_MOTION_DOT = .156E-5
MEAN_MOTION_DDOT = 0

CCSDS_OMM_VERS = 2.0
CREATION_DATE  = 
ORIGINATOR     = 

OBJECT_NAME    = SL-16 R/B
OBJECT_ID      = 1994-074B
CENTER_NAME    = EARTH
REF_FRAME      = TEME
TIME_SYSTEM    = UTC
MEAN_ELEMENT_THEORY = SGP/SGP4

EPOCH          = 2025-12-10T02:31:36.966144
MEAN_MOTION    = 14.79284768
ECCENTRICITY   = .00073646
INCLINATION    = 97.7203
RA_OF_ASC_NODE = 13.5144
ARG_OF_PERICENTER = 143.3593
MEAN_ANOMALY   = 282.0962

EPHEMERIS_TYPE = 0
CLASSIFICATION_TYPE = U
NORAD_CAT_ID   = 23343
ELEMENT_SET_NO = 999
REV_AT_EPOCH   = 67400
BSTAR          = .10926424E-3
MEAN_MOTION_DOT = .763E-5
MEAN_MOTION_DDOT = 0

CCSDS_OMM_VERS = 2.0
CREATION_DATE  = 
ORIGINATOR     = 

OBJECT_NAME    = SL-16 R/B
OBJECT_ID      = 1994-077B
CENTER_NAME    = EARTH
REF_FRAME      = TEME
TIME_SYSTEM    = UTC
MEAN_ELEMENT_THEORY = SGP/SGP4

EPOCH          = 2025-12-10T07:20:16.715328
MEAN_MOTION    = 14.15548154
ECCENTRICITY   = .00046116
INCLINATION    = 70.9811
RA_OF_ASC_NODE = 180.5343
ARG_OF_PERICENTER = 285.9502
MEAN_ANOMALY   = 74.1112

EPHEMERIS_TYPE = 0
CLASSIFICATION_TYPE = U
NORAD_CAT_ID   = 23405
ELEMENT_SET_NO = 999
REV_AT_EPOCH   = 60358
BSTAR          = .16872014E-3
MEAN_MOTION_DOT = .282E-5
MEAN_MOTION_DDOT = 0

CCSDS_OMM_VERS = 2.0
CREATION_DATE  = 
ORIGINATOR     = 

OBJECT_NAME    = ARIANE 40+ R/B
OBJECT_ID      = 1995-021B
CENTER_NAME    = EARTH
REF_FRAME      = TEME
TIME_SYSTEM    = UTC
MEAN_ELEMENT_THEORY = SGP/SGP4

EPOCH          = 2025-12-10T03:48:59.387616
MEAN_MOTION    = 14.39692341
ECCENTRICITY   = .0007583
INCLINATION    = 98.4653
RA_OF_ASC_NODE = 51.7789
ARG_OF_PERICENTER = 56.8146
MEAN_ANOMALY   = 332.7962

EPHEMERIS_TYPE = 0
CLASSIFICATION_TYPE = U
NORAD_CAT_ID   = 23561
ELEMENT_SET_NO = 999
REV_AT_EPOCH   = 60636
BSTAR          = .17441598E-3
MEAN_MOTION_DOT = .502E-5
MEAN_MOTION_DDOT = 0

CCSDS_OMM_VERS = 2.0
CREATION_DATE  = 
ORIGINATOR     = 

OBJECT_NAME    = SL-16 R/B
OBJECT_ID      = 1995-058B
CENTER_NAME    = EARTH
REF_FRAME      = TEME
TIME_SYSTEM    = UTC
MEAN_ELEMENT_THEORY = SGP/SGP4

EPOCH          = 2025-12-10T07:23:58.562016
MEAN_MOTION    = 14.15483291
ECCENTRICITY   = .00149572
INCLINATION    = 71.0225
RA_OF_ASC_NODE = 7.9093
ARG_OF_PERICENTER = 258.3533
MEAN_ANOMALY   = 101.5911

EPHEMERIS_TYPE = 0
CLASSIFICATION_TYPE = U
NORAD_CAT_ID   = 23705
ELEMENT_SET_NO = 999
REV_AT_EPOCH   = 55520
BSTAR          = .11130778E-3
MEAN_MOTION_DOT = .17E-5
MEAN_MOTION_DDOT = 0

CCSDS_OMM_VERS = 2.0
CREATION_DATE  = 
ORIGINATOR     = 

OBJECT_NAME    = SL-16 R/B
OBJECT_ID      = 1996-051B
CENTER_NAME    = EARTH
REF_FRAME      = TEME
TIME_SYSTEM    = UTC
MEAN_ELEMENT_THEORY = SGP/SGP4

EPOCH          = 2025-12-10T05:20:07.645344
MEAN_MOTION    = 14.12396271
ECCENTRICITY   = .00193539
INCLINATION    = 70.7595
RA_OF_ASC_NODE = 4.6129
ARG_OF_PERICENTER = 264.4099
MEAN_ANOMALY   = 95.4814

EPHEMERIS_TYPE = 0
CLASSIFICATION_TYPE = U
NORAD_CAT_ID   = 24298
ELEMENT_SET_NO = 999
REV_AT_EPOCH   = 50901
BSTAR          = .4215684E-4
MEAN_MOTION_DOT = .29E-6
MEAN_MOTION_DDOT = 0

CCSDS_OMM_VERS = 2.0
CREATION_DATE  = 
ORIGINATOR     = 

OBJECT_NAME    = ORBVIEW 2 (SEASTAR)
OBJECT_ID      = 1997-037A
CENTER_NAME    = EARTH
REF_FRAME      = TEME
TIME_SYSTEM    = UTC
MEAN_ELEMENT_THEORY = SGP/SGP4

EPOCH          = 2025-12-10T01:22:36.175296
MEAN_MOTION    = 14.35413923
ECCENTRICITY   = .00017795
INCLINATION    = 98.8456
RA_OF_ASC_NODE = 141.0644
ARG_OF_PERICENTER = 350.8367
MEAN_ANOMALY   = 9.2785

EPHEMERIS_TYPE = 0
CLASSIFICATION_TYPE = U
NORAD_CAT_ID   = 24883
ELEMENT_SET_NO = 999
REV_AT_EPOCH   = 49561
BSTAR          = .19716961E-3
MEAN_MOTION_DOT = .52E-5
MEAN_MOTION_DDOT = 0

